[{"OBJECT_NAME":"FENGYUN 3D","OBJECT_ID":"2017-072A","EPOCH":"2026-03-09T23:43:29.243424","MEAN_MOTION":14.19714568,"ECCENTRICITY":0.00015402,"INCLINATION":99.0037,"RA_OF_ASC_NODE":41.6713,"ARG_OF_PERICENTER":13.7306,"MEAN_ANOMALY":346.3911,"EPHEMERIS_TYPE":0,"CLASSIFICATION_TYPE":"U","NORAD_CAT_ID":43010,"ELEMENT_SET_NO":999,"REV_AT_EPOCH":43091,"BSTAR":3.5759568e-5,"MEAN_MOTION_DOT":2.9e-7,"MEAN_MOTION_DDOT":0},{"OBJECT_NAME":"CZ-6A DEB","OBJECT_ID":"2022-151KW","EPOCH":"2026-03-09T23:27:09.612576","MEAN_MOTION":14.15602842,"ECCENTRICITY":0.00225544,"INCLINATION":98.7961,"RA_OF_ASC_NODE":77.6048,"ARG_OF_PERICENTER":254.0205,"MEAN_ANOMALY":105.8484,"EPHEMERIS_TYPE":0,"CLASSIFICATION_TYPE":"U","NORAD_CAT_ID":54546,"ELEMENT_SET_NO":999,"REV_AT_EPOCH":17143,"BSTAR":0.00015226086,"MEAN_MOTION_DOT":2.55e-6,"MEAN_MOTION_DDOT":0}]
